GSAT0201 (GALILEO 5)    
1 40128U 14050A   26085.95211835 -.00000004  00000+0  00000+0 0  9993
2 40128  48.9652 276.8011 1661372 176.1891 185.2559  1.85519926 76795
